{
  "type": "FeatureCollection",
  "features": [
    {
      "type": "Feature",
      "properties": {
        "norad_id": 29828,
        "name": "FENGYUN 1C DEB",
        "group": "fengyun-1c-debris",
        "lat": -19.171730681682345,
        "lon": 48.87759947717738,
        "alt_km": 902.7157633144652,
        "timestamp": "2025-12-26T17:24:54.991072+00:00",
        "meta_object_name": "FENGYUN 1C DEB",
        "meta_object_id": "1999-025DW",
        "meta_epoch": "2025-12-26T02:28:52.883040",
        "meta_mean_motion": 14.08199319,
        "meta_eccentricity": 0.00613806,
        "meta_inclination": 98.769,
        "meta_ra_of_asc_node": 45.1967,
        "meta_arg_of_pericenter": 119.0087,
        "meta_mean_anomaly": 309.4457,
        "meta_ephemeris_type": 0,
        "meta_classification_type": "U",
        "meta_norad_cat_id": 29828,
        "meta_element_set_no": 999,
        "meta_rev_at_epoch": 96925,
        "meta_bstar": 0.00065707416,
        "meta_mean_motion_dot": 1.099e-05,
        "meta_mean_motion_ddot": 0,
        "tle_line1": "1 29828U 99025DW  25360.10338985  .00001099  00000+0  65707-3 0  9993",
        "tle_line2": "2 29828  98.7690  45.1967 0061380 119.0087 309.4457 14.08199319969254"
      },
      "geometry": {
        "type": "Point",
        "coordinates": [
          48.87759947717738,
          -19.171730681682345
        ]
      }
    },
    {
      "type": "Feature",
      "properties": {
        "norad_id": 29832,
        "name": "FENGYUN 1C DEB",
        "group": "fengyun-1c-debris",
        "lat": -70.77353097429697,
        "lon": 139.40306982318268,
        "alt_km": 617.0812524052453,
        "timestamp": "2025-12-26T17:24:54.991082+00:00",
        "meta_object_name": "FENGYUN 1C DEB",
        "meta_object_id": "1999-025EA",
        "meta_epoch": "2025-12-26T06:12:25.531776",
        "meta_mean_motion": 14.56584171,
        "meta_eccentricity": 0.01923265,
        "meta_inclination": 98.8194,
        "meta_ra_of_asc_node": 112.4744,
        "meta_arg_of_pericenter": 241.6734,
        "meta_mean_anomaly": 116.4945,
        "meta_ephemeris_type": 0,
        "meta_classification_type": "U",
        "meta_norad_cat_id": 29832,
        "meta_element_set_no": 999,
        "meta_rev_at_epoch": 452,
        "meta_bstar": 0.00022680806,
        "meta_mean_motion_dot": 1.234e-05,
        "meta_mean_motion_ddot": 0,
        "tle_line1": "1 29832U 99025EA  25360.25862884  .00001234  00000+0  22681-3 0  9999",
        "tle_line2": "2 29832  98.8194 112.4744 0192326 241.6734 116.4945 14.56584171  4521"
      },
      "geometry": {
        "type": "Point",
        "coordinates": [
          139.40306982318268,
          -70.77353097429697
        ]
      }
    },
    {
      "type": "Feature",
      "properties": {
        "norad_id": 29833,
        "name": "FENGYUN 1C DEB",
        "group": "fengyun-1c-debris",
        "lat": -55.734858627024174,
        "lon": 151.56246922938544,
        "alt_km": 544.4589270235392,
        "timestamp": "2025-12-26T17:24:54.991092+00:00",
        "meta_object_name": "FENGYUN 1C DEB",
        "meta_object_id": "1999-025EB",
        "meta_epoch": "2025-12-25T21:02:02.026176",
        "meta_mean_motion": 14.91381556,
        "meta_eccentricity": 0.0088676,
        "meta_inclination": 99.0781,
        "meta_ra_of_asc_node": 344.1599,
        "meta_arg_of_pericenter": 214.4924,
        "meta_mean_anomaly": 145.0517,
        "meta_ephemeris_type": 0,
        "meta_classification_type": "U",
        "meta_norad_cat_id": 29833,
        "meta_element_set_no": 999,
        "meta_rev_at_epoch": 767,
        "meta_bstar": 0.00093418,
        "meta_mean_motion_dot": 9.986e-05,
        "meta_mean_motion_ddot": 0,
        "tle_line1": "1 29833U 99025EB  25359.87641234  .00009986  00000+0  93418-3 0  9998",
        "tle_line2": "2 29833  99.0781 344.1599 0088676 214.4924 145.0517 14.91381556  7673"
      },
      "geometry": {
        "type": "Point",
        "coordinates": [
          151.56246922938544,
          -55.734858627024174
        ]
      }
    },
    {
      "type": "Feature",
      "properties": {
        "norad_id": 29835,
        "name": "FENGYUN 1C DEB",
        "group": "fengyun-1c-debris",
        "lat": 4.233448758754117,
        "lon": -49.37241095328494,
        "alt_km": 868.944437136186,
        "timestamp": "2025-12-26T17:24:54.991103+00:00",
        "meta_object_name": "FENGYUN 1C DEB",
        "meta_object_id": "1999-025ED",
        "meta_epoch": "2025-12-25T07:27:05.630112",
        "meta_mean_motion": 14.43379478,
        "meta_eccentricity": 0.0167289,
        "meta_inclination": 99.0263,
        "meta_ra_of_asc_node": 128.4538,
        "meta_arg_of_pericenter": 0.0108,
        "meta_mean_anomaly": 26.3953,
        "meta_ephemeris_type": 0,
        "meta_classification_type": "U",
        "meta_norad_cat_id": 29835,
        "meta_element_set_no": 999,
        "meta_rev_at_epoch": 99676,
        "meta_bstar": 5.2205e-05,
        "meta_mean_motion_dot": 1.5e-06,
        "meta_mean_motion_ddot": 0,
        "tle_line1": "1 29835U 99025ED  25359.31048183  .00000150  00000+0  52205-4 0  9997",
        "tle_line2": "2 29835  99.0263 128.4538 0167289   0.0108  26.3953 14.43379478996766"
      },
      "geometry": {
        "type": "Point",
        "coordinates": [
          -49.37241095328494,
          4.233448758754117
        ]
      }
    },
    {
      "type": "Feature",
      "properties": {
        "norad_id": 29836,
        "name": "FENGYUN 1C DEB",
        "group": "fengyun-1c-debris",
        "lat": -65.93518222540372,
        "lon": -102.4375246412122,
        "alt_km": 713.7347689153967,
        "timestamp": "2025-12-26T17:24:54.991113+00:00",
        "meta_object_name": "FENGYUN 1C DEB",
        "meta_object_id": "1999-025EE",
        "meta_epoch": "2025-12-26T05:02:38.451264",
        "meta_mean_motion": 14.54187489,
        "meta_eccentricity": 0.01551047,
        "meta_inclination": 98.1873,
        "meta_ra_of_asc_node": 95.865,
        "meta_arg_of_pericenter": 160.8069,
        "meta_mean_anomaly": 267.7316,
        "meta_ephemeris_type": 0,
        "meta_classification_type": "U",
        "meta_norad_cat_id": 29836,
        "meta_element_set_no": 999,
        "meta_rev_at_epoch": 63751,
        "meta_bstar": 0.00067427195,
        "meta_mean_motion_dot": 3.3e-05,
        "meta_mean_motion_ddot": 0,
        "tle_line1": "1 29836U 99025EE  25360.21016726  .00003300  00000+0  67427-3 0  9998",
        "tle_line2": "2 29836  98.1873  95.8650 0155104 160.8069 267.7316 14.54187489637510"
      },
      "geometry": {
        "type": "Point",
        "coordinates": [
          -102.4375246412122,
          -65.93518222540372
        ]
      }
    },
    {
      "type": "Feature",
      "properties": {
        "norad_id": 29841,
        "name": "FENGYUN 1C DEB",
        "group": "fengyun-1c-debris",
        "lat": -54.06645297329717,
        "lon": 116.08001348106549,
        "alt_km": 663.9056702696671,
        "timestamp": "2025-12-26T17:24:54.991123+00:00",
        "meta_object_name": "FENGYUN 1C DEB",
        "meta_object_id": "1999-025EK",
        "meta_epoch": "2025-12-25T14:35:28.580352",
        "meta_mean_motion": 14.46532611,
        "meta_eccentricity": 0.0199711,
        "meta_inclination": 98.8206,
        "meta_ra_of_asc_node": 307.2874,
        "meta_arg_of_pericenter": 294.9676,
        "meta_mean_anomaly": 244.9525,
        "meta_ephemeris_type": 0,
        "meta_classification_type": "U",
        "meta_norad_cat_id": 29841,
        "meta_element_set_no": 999,
        "meta_rev_at_epoch": 99509,
        "meta_bstar": 0.00050499,
        "meta_mean_motion_dot": 2.272e-05,
        "meta_mean_motion_ddot": 0,
        "tle_line1": "1 29841U 99025EK  25359.60796968  .00002272  00000+0  50499-3 0  9996",
        "tle_line2": "2 29841  98.8206 307.2874 0199711 294.9676 244.9525 14.46532611995097"
      },
      "geometry": {
        "type": "Point",
        "coordinates": [
          116.08001348106549,
          -54.06645297329717
        ]
      }
    },
    {
      "type": "Feature",
      "properties": {
        "norad_id": 29842,
        "name": "FENGYUN 1C DEB",
        "group": "fengyun-1c-debris",
        "lat": -77.88624894173526,
        "lon": -135.88417245902633,
        "alt_km": 756.7566855770247,
        "timestamp": "2025-12-26T17:24:54.991133+00:00",
        "meta_object_name": "FENGYUN 1C DEB",
        "meta_object_id": "1999-025EL",
        "meta_epoch": "2025-12-26T04:51:34.752384",
        "meta_mean_motion": 14.60424992,
        "meta_eccentricity": 0.01088988,
        "meta_inclination": 98.5678,
        "meta_ra_of_asc_node": 88.1959,
        "meta_arg_of_pericenter": 124.1094,
        "meta_mean_anomaly": 267.5834,
        "meta_ephemeris_type": 0,
        "meta_classification_type": "U",
        "meta_norad_cat_id": 29842,
        "meta_element_set_no": 999,
        "meta_rev_at_epoch": 99550,
        "meta_bstar": 0.001183289,
        "meta_mean_motion_dot": 6.18e-05,
        "meta_mean_motion_ddot": 0,
        "tle_line1": "1 29842U 99025EL  25360.20248556  .00006180  00000+0  11833-2 0  9990",
        "tle_line2": "2 29842  98.5678  88.1959 0108898 124.1094 267.5834 14.60424992995509"
      },
      "geometry": {
        "type": "Point",
        "coordinates": [
          -135.88417245902633,
          -77.88624894173526
        ]
      }
    }
  ]
}